[{"OBJECT_NAME":"ONEWEB-0315","OBJECT_ID":"2021-075AC","EPOCH":"2026-05-03T03:39:21.883104","MEAN_MOTION":13.12444467,"ECCENTRICITY":0.0001917,"INCLINATION":87.8989,"RA_OF_ASC_NODE":359.595,"ARG_OF_PERICENTER":93.5083,"MEAN_ANOMALY":266.6265,"EPHEMERIS_TYPE":0,"CLASSIFICATION_TYPE":"U","NORAD_CAT_ID":49101,"ELEMENT_SET_NO":999,"REV_AT_EPOCH":22926,"BSTAR":-0.00079527,"MEAN_MOTION_DOT":-2.73e-06,"MEAN_MOTION_DDOT":0.0},{"OBJECT_NAME":"ONEWEB-0316","OBJECT_ID":"2021-075AD","EPOCH":"2026-05-03T02:06:56.212704","MEAN_MOTION":13.18690219,"ECCENTRICITY":0.0001784,"INCLINATION":87.9187,"RA_OF_ASC_NODE":344.432,"ARG_OF_PERICENTER":86.6544,"MEAN_ANOMALY":273.4792,"EPHEMERIS_TYPE":0,"CLASSIFICATION_TYPE":"U","NORAD_CAT_ID":49102,"ELEMENT_SET_NO":999,"REV_AT_EPOCH":23126,"BSTAR":-0.0011557000000000002,"MEAN_MOTION_DOT":-4.43e-06,"MEAN_MOTION_DDOT":0.0},{"OBJECT_NAME":"ONEWEB-0317","OBJECT_ID":"2021-075AE","EPOCH":"2026-05-03T03:44:14.575200","MEAN_MOTION":13.12444689,"ECCENTRICITY":0.0001685,"INCLINATION":87.8989,"RA_OF_ASC_NODE":359.6176,"ARG_OF_PERICENTER":57.3264,"MEAN_ANOMALY":302.8027,"EPHEMERIS_TYPE":0,"CLASSIFICATION_TYPE":"U","NORAD_CAT_ID":49103,"ELEMENT_SET_NO":999,"REV_AT_EPOCH":22928,"BSTAR":-0.00035131,"MEAN_MOTION_DOT":-1.14e-06,"MEAN_MOTION_DDOT":0.0},{"OBJECT_NAME":"ONEWEB-0318","OBJECT_ID":"2021-075AF","EPOCH":"2026-05-03T02:02:04.974720","MEAN_MOTION":13.18699412,"ECCENTRICITY":0.0001761,"INCLINATION":87.9195,"RA_OF_ASC_NODE":344.4301,"ARG_OF_PERICENTER":93.4033,"MEAN_ANOMALY":266.7301,"EPHEMERIS_TYPE":0,"CLASSIFICATION_TYPE":"U","NORAD_CAT_ID":49104,"ELEMENT_SET_NO":999,"REV_AT_EPOCH":23122,"BSTAR":-0.0026693,"MEAN_MOTION_DOT":-1.04e-05,"MEAN_MOTION_DDOT":0.0},{"OBJECT_NAME":"ONEWEB-0319","OBJECT_ID":"2021-075AG","EPOCH":"2026-05-03T05:15:38.752128","MEAN_MOTION":13.17649452,"ECCENTRICITY":0.0002038,"INCLINATION":87.9176,"RA_OF_ASC_NODE":14.8054,"ARG_OF_PERICENTER":96.5171,"MEAN_ANOMALY":263.6193,"EPHEMERIS_TYPE":0,"CLASSIFICATION_TYPE":"U","NORAD_CAT_ID":49105,"ELEMENT_SET_NO":999,"REV_AT_EPOCH":22768,"BSTAR":0.00015988,"MEAN_MOTION_DOT":7.5e-07,"MEAN_MOTION_DDOT":0.0},{"OBJECT_NAME":"ONEWEB-0323","OBJECT_ID":"2021-075AH","EPOCH":"2026-05-03T05:07:11.085600","MEAN_MOTION":13.1244388,"ECCENTRICITY":0.0001863,"INCLINATION":87.8987,"RA_OF_ASC_NODE":359.5875,"ARG_OF_PERICENTER":100.4806,"MEAN_ANOMALY":259.6533,"EPHEMERIS_TYPE":0,"CLASSIFICATION_TYPE":"U","NORAD_CAT_ID":49106,"ELEMENT_SET_NO":999,"REV_AT_EPOCH":22865,"BSTAR":-0.0009907,"MEAN_MOTION_DOT":-3.44e-06,"MEAN_MOTION_DDOT":0.0},{"OBJECT_NAME":"ONEWEB-0329","OBJECT_ID":"2021-075AJ","EPOCH":"2026-05-03T05:27:47.181888","MEAN_MOTION":13.17648909,"ECCENTRICITY":0.000171,"INCLINATION":87.9176,"RA_OF_ASC_NODE":14.8043,"ARG_OF_PERICENTER":84.5948,"MEAN_ANOMALY":275.5378,"EPHEMERIS_TYPE":0,"CLASSIFICATION_TYPE":"U","NORAD_CAT_ID":49107,"ELEMENT_SET_NO":999,"REV_AT_EPOCH":22766,"BSTAR":5.1118e-05,"MEAN_MOTION_DOT":3.3e-07,"MEAN_MOTION_DDOT":0.0},{"OBJECT_NAME":"ONEWEB-0330","OBJECT_ID":"2021-075AK","EPOCH":"2026-05-03T06:02:00.538368","MEAN_MOTION":13.17650561,"ECCENTRICITY":0.0001552,"INCLINATION":87.9181,"RA_OF_ASC_NODE":14.8189,"ARG_OF_PERICENTER":81.2768,"MEAN_ANOMALY":278.854,"EPHEMERIS_TYPE":0,"CLASSIFICATION_TYPE":"U","NORAD_CAT_ID":49108,"ELEMENT_SET_NO":999,"REV_AT_EPOCH":22770,"BSTAR":0.00016195,"MEAN_MOTION_DOT":7.6e-07,"MEAN_MOTION_DDOT":0.0},{"OBJECT_NAME":"ONEWEB-0292","OBJECT_ID":"2021-083A","EPOCH":"2026-05-03T01:38:31.716096","MEAN_MOTION":13.1347134,"ECCENTRICITY":0.0001815,"INCLINATION":87.8943,"RA_OF_ASC_NODE":329.2322,"ARG_OF_PERICENTER":92.241,"MEAN_ANOMALY":267.8927,"EPHEMERIS_TYPE":0,"CLASSIFICATION_TYPE":"U","NORAD_CAT_ID":49186,"ELEMENT_SET_NO":999,"REV_AT_EPOCH":22500,"BSTAR":-0.00045860000000000003,"MEAN_MOTION_DOT":-1.55e-06,"MEAN_MOTION_DDOT":0.0},{"OBJECT_NAME":"ONEWEB-0303","OBJECT_ID":"2021-083B","EPOCH":"2026-05-03T01:57:14.368320","MEAN_MOTION":13.18707272,"ECCENTRICITY":0.000171,"INCLINATION":87.9189,"RA_OF_ASC_NODE":344.4315,"ARG_OF_PERICENTER":90.3053,"MEAN_ANOMALY":269.8275,"EPHEMERIS_TYPE":0,"CLASSIFICATION_TYPE":"U","NORAD_CAT_ID":49187,"ELEMENT_SET_NO":999,"REV_AT_EPOCH":22403,"BSTAR":-0.0042172,"MEAN_MOTION_DOT":-1.65e-05,"MEAN_MOTION_DDOT":0.0},{"OBJECT_NAME":"ONEWEB-0306","OBJECT_ID":"2021-083C","EPOCH":"2026-05-03T03:31:56.631936","MEAN_MOTION":13.18711153,"ECCENTRICITY":0.0001742,"INCLINATION":87.9198,"RA_OF_ASC_NODE":344.4041,"ARG_OF_PERICENTER":77.1911,"MEAN_ANOMALY":282.9416,"EPHEMERIS_TYPE":0,"CLASSIFICATION_TYPE":"U","NORAD_CAT_ID":49188,"ELEMENT_SET_NO":999,"REV_AT_EPOCH":22408,"BSTAR":-0.0106,"MEAN_MOTION_DOT":-4.166e-05,"MEAN_MOTION_DDOT":0.0},{"OBJECT_NAME":"ONEWEB-0307","OBJECT_ID":"2021-083D","EPOCH":"2026-05-03T06:59:03.956928","MEAN_MOTION":13.13470902,"ECCENTRICITY":0.000171,"INCLINATION":87.8953,"RA_OF_ASC_NODE":329.1801,"ARG_OF_PERICENTER":91.7062,"MEAN_ANOMALY":268.4263,"EPHEMERIS_TYPE":0,"CLASSIFICATION_TYPE":"U","NORAD_CAT_ID":49189,"ELEMENT_SET_NO":999,"REV_AT_EPOCH":22503,"BSTAR":-0.00070087,"MEAN_MOTION_DOT":-2.43e-06,"MEAN_MOTION_DDOT":0.0},{"OBJECT_NAME":"ONEWEB-0320","OBJECT_ID":"2021-083E","EPOCH":"2026-05-03T02:11:58.350912","MEAN_MOTION":13.18711216,"ECCENTRICITY":0.0001787,"INCLINATION":87.9182,"RA_OF_ASC_NODE":344.4368,"ARG_OF_PERICENTER":85.1218,"MEAN_ANOMALY":275.0118,"EPHEMERIS_TYPE":0,"CLASSIFICATION_TYPE":"U","NORAD_CAT_ID":49190,"ELEMENT_SET_NO":999,"REV_AT_EPOCH":22403,"BSTAR":0.0073181,"MEAN_MOTION_DOT":2.9e-05,"MEAN_MOTION_DDOT":0.0},{"OBJECT_NAME":"ONEWEB-0321","OBJECT_ID":"2021-083F","EPOCH":"2026-05-02T21:33:39.470400","MEAN_MOTION":13.20770285,"ECCENTRICITY":0.0001707,"INCLINATION":87.9146,"RA_OF_ASC_NODE":283.471,"ARG_OF_PERICENTER":86.0994,"MEAN_ANOMALY":274.0334,"EPHEMERIS_TYPE":0,"CLASSIFICATION_TYPE":"U","NORAD_CAT_ID":49191,"ELEMENT_SET_NO":999,"REV_AT_EPOCH":23085,"BSTAR":-0.00022977000000000002,"MEAN_MOTION_DOT":-8e-07,"MEAN_MOTION_DDOT":0.0},{"OBJECT_NAME":"ONEWEB-0322","OBJECT_ID":"2021-083G","EPOCH":"2026-05-03T06:52:59.513088","MEAN_MOTION":13.13470816,"ECCENTRICITY":0.0001972,"INCLINATION":87.895,"RA_OF_ASC_NODE":329.1835,"ARG_OF_PERICENTER":74.7344,"MEAN_ANOMALY":285.4003,"EPHEMERIS_TYPE":0,"CLASSIFICATION_TYPE":"U","NORAD_CAT_ID":49192,"ELEMENT_SET_NO":999,"REV_AT_EPOCH":22502,"BSTAR":-0.00068821,"MEAN_MOTION_DOT":-2.39e-06,"MEAN_MOTION_DDOT":0.0},{"OBJECT_NAME":"ONEWEB-0324","OBJECT_ID":"2021-083H","EPOCH":"2026-05-03T03:22:14.131776","MEAN_MOTION":13.18720562,"ECCENTRICITY":0.0001346,"INCLINATION":87.9197,"RA_OF_ASC_NODE":344.4103,"ARG_OF_PERICENTER":86.1628,"MEAN_ANOMALY":273.9658,"EPHEMERIS_TYPE":0,"CLASSIFICATION_TYPE":"U","NORAD_CAT_ID":49193,"ELEMENT_SET_NO":999,"REV_AT_EPOCH":22406,"BSTAR":-0.013333999999999999,"MEAN_MOTION_DOT":-5.243e-05,"MEAN_MOTION_DDOT":0.0},{"OBJECT_NAME":"ONEWEB-0325","OBJECT_ID":"2021-083J","EPOCH":"2026-05-03T03:27:04.681152","MEAN_MOTION":13.18717192,"ECCENTRICITY":0.0001863,"INCLINATION":87.9183,"RA_OF_ASC_NODE":344.4228,"ARG_OF_PERICENTER":83.5016,"MEAN_ANOMALY":276.6328,"EPHEMERIS_TYPE":0,"CLASSIFICATION_TYPE":"U","NORAD_CAT_ID":49194,"ELEMENT_SET_NO":999,"REV_AT_EPOCH":22407,"BSTAR":-0.012349,"MEAN_MOTION_DOT":-4.855e-05,"MEAN_MOTION_DDOT":0.0},{"OBJECT_NAME":"ONEWEB-0326","OBJECT_ID":"2021-083K","EPOCH":"2026-05-03T01:59:51.501408","MEAN_MOTION":13.18693745,"ECCENTRICITY":0.0001913,"INCLINATION":87.9194,"RA_OF_ASC_NODE":344.4289,"ARG_OF_PERICENTER":95.1144,"MEAN_ANOMALY":265.0207,"EPHEMERIS_TYPE":0,"CLASSIFICATION_TYPE":"U","NORAD_CAT_ID":49195,"ELEMENT_SET_NO":999,"REV_AT_EPOCH":22405,"BSTAR":0.0001817,"MEAN_MOTION_DOT":8.5e-07,"MEAN_MOTION_DDOT":0.0},{"OBJECT_NAME":"ONEWEB-0327","OBJECT_ID":"2021-083L","EPOCH":"2026-05-03T01:59:27.979008","MEAN_MOTION":13.18696614,"ECCENTRICITY":0.0002229,"INCLINATION":87.9189,"RA_OF_ASC_NODE":344.4369,"ARG_OF_PERICENTER":93.2686,"MEAN_ANOMALY":266.8701,"EPHEMERIS_TYPE":0,"CLASSIFICATION_TYPE":"U","NORAD_CAT_ID":49196,"ELEMENT_SET_NO":999,"REV_AT_EPOCH":22407,"BSTAR":-0.0039883,"MEAN_MOTION_DOT":-1.559e-05,"MEAN_MOTION_DDOT":0.0},{"OBJECT_NAME":"ONEWEB-0328","OBJECT_ID":"2021-083M","EPOCH":"2026-05-03T06:38:21.937920","MEAN_MOTION":13.13470287,"ECCENTRICITY":0.0001607,"INCLINATION":87.8961,"RA_OF_ASC_NODE":329.1537,"ARG_OF_PERICENTER":87.3737,"MEAN_ANOMALY":272.7576,"EPHEMERIS_TYPE":0,"CLASSIFICATION_TYPE":"U","NORAD_CAT_ID":49197,"ELEMENT_SET_NO":999,"REV_AT_EPOCH":22500,"BSTAR":-0.00046522,"MEAN_MOTION_DOT":-1.57e-06,"MEAN_MOTION_DDOT":0.0},{"OBJECT_NAME":"ONEWEB-0331","OBJECT_ID":"2021-083N","EPOCH":"2026-05-03T01:49:56.785152","MEAN_MOTION":13.18703759,"ECCENTRICITY":0.0001889,"INCLINATION":87.9197,"RA_OF_ASC_NODE":344.4233,"ARG_OF_PERICENTER":95.7398,"MEAN_ANOMALY":264.395,"EPHEMERIS_TYPE":0,"CLASSIFICATION_TYPE":"U","NORAD_CAT_ID":49198,"ELEMENT_SET_NO":999,"REV_AT_EPOCH":22406,"BSTAR":-0.0068765,"MEAN_MOTION_DOT":-2.698e-05,"MEAN_MOTION_DDOT":0.0},{"OBJECT_NAME":"ONEWEB-0333","OBJECT_ID":"2021-083P","EPOCH":"2026-05-03T06:31:02.781408","MEAN_MOTION":13.13470083,"ECCENTRICITY":0.0001773,"INCLINATION":87.8956,"RA_OF_ASC_NODE":329.1853,"ARG_OF_PERICENTER":86.7362,"MEAN_ANOMALY":273.397,"EPHEMERIS_TYPE":0,"CLASSIFICATION_TYPE":"U","NORAD_CAT_ID":49199,"ELEMENT_SET_NO":999,"REV_AT_EPOCH":22501,"BSTAR":0.00014230000000000002,"MEAN_MOTION_DOT":6.5e-07,"MEAN_MOTION_DDOT":0.0},{"OBJECT_NAME":"ONEWEB-0334","OBJECT_ID":"2021-083Q","EPOCH":"2026-05-03T03:25:55.426368","MEAN_MOTION":13.20770808,"ECCENTRICITY":0.0002136,"INCLINATION":87.9139,"RA_OF_ASC_NODE":283.4355,"ARG_OF_PERICENTER":69.6037,"MEAN_ANOMALY":290.5325,"EPHEMERIS_TYPE":0,"CLASSIFICATION_TYPE":"U","NORAD_CAT_ID":49200,"ELEMENT_SET_NO":999,"REV_AT_EPOCH":23084,"BSTAR":1.0008000000000001e-05,"MEAN_MOTION_DOT":1.7e-07,"MEAN_MOTION_DDOT":0.0}]